$$SOE
2461288.500000000, A.D. 2026-Sep-05 00:00:00.0000, -6.304020291813736E+07, -3.855063621418765E+08, -2.422668483433515E+06,
2461295.500000000, A.D. 2026-Sep-12 00:00:00.0000, -5.272176909874194E+07, -3.859086241840203E+08, -1.476722060956717E+06,
2461302.500000000, A.D. 2026-Sep-19 00:00:00.0000, -4.236001928867906E+07, -3.859938690450894E+08, -5.295635540570617E+05,
2461309.500000000, A.D. 2026-Sep-26 00:00:00.0000, -3.196314876363210E+07, -3.857591184820862E+08, 4.180329316064715E+05,
2461316.500000000, A.D. 2026-Oct-03 00:00:00.0000, -2.153952553641065E+07, -3.852015106467050E+08, 1.365278439233005E+06,
2461323.500000000, A.D. 2026-Oct-10 00:00:00.0000, -1.109769610237356E+07, -3.843183068099802E+08, 2.311368705867618E+06,
2461330.500000000, A.D. 2026-Oct-17 00:00:00.0000, -6.463912287789542E+05, -3.831068987921740E+08, 3.255483708683759E+06,
2461337.500000000, A.D. 2026-Oct-24 00:00:00.0000, 9.805468263274189E+06, -3.815648171535087E+08, 4.196787210981041E+06,
2461344.500000000, A.D. 2026-Oct-31 00:00:00.0000, 2.024876585303673E+07, -3.796897402484761E+08, 5.134426296430588E+06,
2461351.500000000, A.D. 2026-Nov-07 00:00:00.0000, 3.067418418222969E+07, -3.774795041074809E+08, 6.067530870159402E+06,
2461358.500000000, A.D. 2026-Nov-14 00:00:00.0000, 4.107220066231681E+07, -3.749321122968472E+08, 6.995213184883863E+06,
2461365.500000000, A.D. 2026-Nov-21 00:00:00.0000, 5.143308205595542E+07, -3.720457451133267E+08, 7.916567618446603E+06,
2461372.500000000, A.D. 2026-Nov-28 00:00:00.0000, 6.174687708119766E+07, -3.688187711580384E+08, 8.830670553134099E+06,
2461379.500000000, A.D. 2026-Dec-05 00:00:00.0000, 7.200341071180464E+07, -3.652497619846957E+08, 9.736579976300389E+06,
2461386.500000000, A.D. 2026-Dec-12 00:00:00.0000, 8.219228039837708E+07, -3.613375067525391E+08, 1.063333504743126E+07,
2461393.500000000, A.D. 2026-Dec-19 00:00:00.0000, 9.230285238851802E+07, -3.570810269185663E+08, 1.151995581201829E+07,
2461400.500000000, A.D. 2026-Dec-26 00:00:00.0000, 1.023242580761881E+08, -3.524795918764333E+08, 1.239544301169115E+07,
2461407.500000000, A.D. 2027-Jan-02 00:00:00.0000, 1.122453907362643E+08, -3.475327357708025E+08, 1.325877795767917E+07,
2461414.500000000, A.D. 2027-Jan-09 00:00:00.0000, 1.220549028491518E+08, -3.422402755024716E+08, 1.410892246712817E+07,
2461421.500000000, A.D. 2027-Jan-16 00:00:00.0000, 1.317412041472229E+08, -3.366023299470915E+08, 1.494481886886306E+07,
2461428.500000000, A.D. 2027-Jan-23 00:00:00.0000, 1.412924605359422E+08, -3.306193404542785E+08, 1.576539008085226E+07,
2461435.500000000, A.D. 2027-Jan-30 00:00:00.0000, 1.506965941958311E+08, -3.242920926986223E+08, 1.656953974909395E+07,
2461442.500000000, A.D. 2027-Feb-06 00:00:00.0000, 1.599412854190292E+08, -3.176217395624903E+08, 1.735615244901410E+07,
2461449.500000000, A.D. 2027-Feb-13 00:00:00.0000, 1.690139758588388E+08, -3.106098238438443E+08, 1.812409410457321E+07,
2461456.500000000, A.D. 2027-Feb-20 00:00:00.0000, 1.779018709772998E+08, -3.032583015812582E+08, 1.887221279098190E+07,
2461463.500000000, A.D. 2027-Feb-27 00:00:00.0000, 1.865919432483345E+08, -2.955695691965318E+08, 1.959933954444496E+07,
2461470.500000000, A.D. 2027-Mar-06 00:00:00.0000, 1.950709393113008E+08, -2.875464925070335E+08, 2.030428907454036E+07,
2461477.500000000, A.D. 2027-Mar-13 00:00:00.0000, 2.033253896645717E+08, -2.791924355207727E+08, 2.098586071037422E+07,
2461484.500000000, A.D. 2027-Mar-20 00:00:00.0000, 2.113416199707375E+08, -2.705112897938271E+08, 2.164283963384601E+07,
2461491.500000000, A.D. 2027-Mar-27 00:00:00.0000, 2.191057643876819E+08, -2.615075048233512E+08, 2.227399835556318E+07,
2461498.500000000, A.D. 2027-Apr-03 00:00:00.0000, 2.266037813510043E+08, -2.521861194257461E+08, 2.287809843089405E+07,
2461505.500000000, A.D. 2027-Apr-10 00:00:00.0000, 2.338214720990454E+08, -2.425527939538123E+08, 2.345389243328089E+07,
2461512.500000000, A.D. 2027-Apr-17 00:00:00.0000, 2.407445021953819E+08, -2.326138432144614E+08, 2.400012620235720E+07,
2461519.500000000, A.D. 2027-Apr-24 00:00:00.0000, 2.473584263599716E+08, -2.223762699591236E+08, 2.451554137362418E+07,
2461526.500000000, A.D. 2027-May-01 00:00:00.0000, 2.536487171418936E+08, -2.118477986854615E+08, 2.499887818168845E+07,
2461533.500000000, A.D. 2027-May-08 00:00:00.0000, 2.596007979800305E+08, -2.010369087269982E+08, 2.544887858729635E+07,
2461540.500000000, A.D. 2027-May-15 00:00:00.0000, 2.652000793946352E+08, -1.899528653658982E+08, 2.586428996184833E+07,
2461547.500000000, A.D. 2027-May-22 00:00:00.0000, 2.704319969731643E+08, -1.786057512092977E+08, 2.624386927917636E+07,
2461554.500000000, A.D. 2027-May-29 00:00:00.0000, 2.752820547110848E+08, -1.670064988988717E+08, 2.658638740305666E+07,
2461561.500000000, A.D. 2027-Jun-05 00:00:00.0000, 2.797358747698160E+08, -1.551669215745609E+08, 2.689063365907728E+07,
2461568.500000000, A.D. 2027-Jun-12 00:00:00.0000, 2.837792517850996E+08, -1.430997401625942E+08, 2.715542092006617E+07,
2461575.500000000, A.D. 2027-Jun-19 00:00:00.0000, 2.873982114898739E+08, -1.308186078708988E+08, 2.737959116334269E+07,
2461582.500000000, A.D. 2027-Jun-26 00:00:00.0000, 2.905790739726700E+08, -1.183381315490819E+08, 2.756202145128870E+07,
2461589.500000000, A.D. 2027-Jul-03 00:00:00.0000, 2.933085216822706E+08, -1.056738892529383E+08, 2.770163031609285E+07,
2461596.500000000, A.D. 2027-Jul-10 00:00:00.0000, 2.955736721200519E+08, -9.284244331135337E+07, 2.779738453140232E+07,
2461603.500000000, A.D. 2027-Jul-17 00:00:00.0000, 2.973621550748133E+08, -7.986134820738082E+07, 2.784830624180792E+07,
2461610.500000000, A.D. 2027-Jul-24 00:00:00.0000, 2.986621942744148E+08, -6.674915258499736E+07, 2.785348039824723E+07,
2461617.500000000, A.D. 2027-Jul-31 00:00:00.0000, 2.994626934693230E+08, -5.352539437779257E+07, 2.781206243680889E+07,
2461624.500000000, A.D. 2027-Aug-07 00:00:00.0000, 2.997533262365609E+08, -4.021058713433854E+07, 2.772328626015870E+07,
2461631.500000000, A.D. 2027-Aug-14 00:00:00.0000, 2.995246265771278E+08, -2.682619704464900E+07, 2.758647265070955E+07,
2461638.500000000, A.D. 2027-Aug-21 00:00:00.0000, 2.987680801592444E+08, -1.339461332939860E+07, 2.740103770841138E+07,
2461645.500000000, A.D. 2027-Aug-28 00:00:00.0000, 2.974762187248617E+08, 6.088985974881239E+04, 2.716650100642962E+07,
2461652.500000000, A.D. 2027-Sep-04 00:00:00.0000, 2.956427154335885E+08, 1.351620309796616E+07, 2.688249367712220E+07,
2461659.500000000, A.D. 2027-Sep-11 00:00:00.0000, 2.932624785785751E+08, 2.694644269399565E+07, 2.654876639217152E+07,
2461666.500000000, A.D. 2027-Sep-18 00:00:00.0000, 2.903317425168200E+08, 4.032602270600028E+07, 2.616519705150016E+07,
2461673.500000000, A.D. 2027-Sep-25 00:00:00.0000, 2.868481546457528E+08, 5.362873803116252E+07, 2.573179802492942E+07,
2461680.500000000, A.D. 2027-Oct-02 00:00:00.0000, 2.828108570184282E+08, 6.682785854467580E+07, 2.524872280637084E+07,
2461687.500000000, A.D. 2027-Oct-09 00:00:00.0000, 2.782205610772855E+08, 7.989623401513104E+07, 2.471627193794535E+07,
2461694.500000000, A.D. 2027-Oct-16 00:00:00.0000, 2.730796140005038E+08, 9.280640923984501E+07, 2.413489805236476E+07,
2461701.500000000, A.D. 2027-Oct-23 00:00:00.0000, 2.673920553662533E+08, 1.055307486478247E+08, 2.350520987107342E+07,
2461708.500000000, A.D. 2027-Oct-30 00:00:00.0000, 2.611636630101493E+08, 1.180415699795318E+08, 2.282797504228067E+07,
2461715.500000000, A.D. 2027-Nov-06 00:00:00.0000, 2.544019855090503E+08, 1.303112869259391E+08, 2.210412189972014E+07,
2461722.500000000, A.D. 2027-Nov-13 00:00:00.0000, 2.471163580775259E+08, 1.423125571795485E+08, 2.133474006120458E+07,
2461729.500000000, A.D. 2027-Nov-20 00:00:00.0000, 2.393179037713237E+08, 1.540184320014089E+08, 2.052107934902719E+07,
2461736.500000000, A.D. 2027-Nov-27 00:00:00.0000, 2.310195208272281E+08, 1.654025083510099E+08, 1.966454707036516E+07,
2461743.500000000, A.D. 2027-Dec-04 00:00:00.0000, 2.222358535986580E+08, 1.764390824287250E+08, 1.876670388898563E+07,
2461750.500000000, A.D. 2027-Dec-11 00:00:00.0000, 2.129832463329169E+08, 1.871033015004669E+08, 1.782925826036979E+07,
2461757.500000000, A.D. 2027-Dec-18 00:00:00.0000, 2.032796801926227E+08, 1.973713114497987E+08, 1.685405940773062E+07,
2461764.500000000, A.D. 2027-Dec-25 00:00:00.0000, 1.931446941422767E+08, 2.072203978511880E+08, 1.584308888625011E+07,
2461771.500000000, A.D. 2028-Jan-01 00:00:00.0000, 1.825992905518713E+08, 2.166291184487568E+08, 1.479845082527693E+07,
$$EOE